NORAD_CAT_ID,OBJECT_NAME,OBJECT_TYPE,EPOCH,MEAN_MOTION,ECCENTRICITY,INCLINATION,RA_OF_ASC_NODE,ARG_OF_PERICENTER,MEAN_ANOMALY,BSTAR,MEAN_MOTION_DOT,MEAN_MOTION_DDOT,TLE_LINE0,TLE_LINE1,TLE_LINE2,SEMIMAJOR_AXIS,PERIOD,APOGEE,PERIGEE,DECAYED
50808.0,STARLINK-3355,PAYLOAD,2023-09-17 07:09:50,15.08847024,0.0001502,53.216,259.0922,93.7411,266.3752,0.00011031,1.468e-05,0.0,0 STARLINK-3355,1 50808U 22001F   23260.29850653  .00001468  00000-0  11031-3 0  9995,2 50808  53.2160 259.0922 0001502  93.7411 266.3752 15.08847024 95264,6917.859,95.437,540.763,538.685,0.0
50808.0,STARLINK-3355,PAYLOAD,2023-09-18 00:39:05,15.08838852,0.0001585,53.2162,255.8215,97.6421,262.4752,2.7302e-05,1.47e-06,0.0,0 STARLINK-3355,1 50808U 22001F   23261.02715053  .00000147  00000-0  27302-4 0  9993,2 50808  53.2162 255.8215 0001585  97.6421 262.4752 15.08838852 95378,6917.884,95.438,540.845,538.652,0.0
50808.0,STARLINK-3355,PAYLOAD,2023-09-18 08:36:01,15.08841638,0.0001552,53.2173,254.3348,98.3486,261.7682,7.3906e-05,8.88e-06,0.0,0 STARLINK-3355,1 50808U 22001F   23261.35835154  .00000888  00000-0  73906-4 0  9997,2 50808  53.2173 254.3348 0001552  98.3486 261.7682 15.08841638 94171,6917.875,95.437,540.814,538.667,0.0
50808.0,STARLINK-3355,PAYLOAD,2023-09-18 16:32:57,15.08840617,0.0001597,53.2175,252.8474,92.5765,267.541,9.2769e-05,1.189e-05,0.0,0 STARLINK-3355,1 50808U 22001F   23261.68955219  .00001189  00000-0  92769-4 0  9991,2 50808  53.2175 252.8474 0001597  92.5765 267.5410 15.08840617 94226,6917.879,95.438,540.848,538.639,0.0
50808.0,STARLINK-3355,PAYLOAD,2023-09-19 06:51:25,15.08847455,0.0001615,53.2172,250.1705,91.9149,268.2028,0.00017107,2.436e-05,0.0,0 STARLINK-3355,1 50808U 22001F   23262.28570662  .00002436  00000-0  17107-3 0  9991,2 50808  53.2172 250.1705 0001615  91.9149 268.2028 15.08847455 95569,6917.858,95.437,540.84,538.605,0.0
50808.0,STARLINK-3355,PAYLOAD,2023-09-19 16:23:44,15.08839542,0.0001684,53.2172,248.3857,83.6193,276.4991,4.6497e-05,4.52e-06,0.0,0 STARLINK-3355,1 50808U 22001F   23262.68315078  .00000452  00000-0  46497-4 0  9994,2 50808  53.2172 248.3857 0001684  83.6193 276.4991 15.08839542 95624,6917.882,95.438,540.912,538.582,0.0
50808.0,STARLINK-3355,PAYLOAD,2023-09-20 06:42:12,15.08837397,0.0001625,53.2176,245.7099,83.5903,276.5274,3.9488e-05,3.4e-06,0.0,0 STARLINK-3355,1 50808U 22001F   23263.27931613  .00000340  00000-0  39488-4 0  9997,2 50808  53.2176 245.7099 0001625  83.5903 276.5274 15.08837397 94462,6917.888,95.438,540.878,538.629,0.0
50808.0,STARLINK-3355,PAYLOAD,2023-09-20 16:14:31,15.08838395,0.0001643,53.2174,243.9264,82.0427,278.0752,3.3842e-05,2.51e-06,0.0,0 STARLINK-3355,1 50808U 22001F   23263.67675617  .00000251  00000-0  33842-4 0  9999,2 50808  53.2174 243.9264 0001643  82.0427 278.0752 15.08838395 95771,6917.885,95.438,540.887,538.614,0.0
50808.0,STARLINK-3355,PAYLOAD,2023-09-21 08:08:22,15.08843571,0.000152,53.217,240.9507,87.5671,272.5495,1.2992e-06,-2.67e-06,0.0,0 STARLINK-3355,1 50808U 22001F   23264.33915457 -.00000267  00000-0  12992-5 0  9994,2 50808  53.2170 240.9507 0001520  87.5671 272.5495 15.08843571 94627,6917.869,95.437,540.786,538.683,0.0
50808.0,STARLINK-3355,PAYLOAD,2023-09-21 22:26:51,15.08833101,0.0001354,53.217,238.2748,84.9135,275.2012,0.00012977,1.778e-05,0.0,0 STARLINK-3355,1 50808U 22001F   23264.93531864  .00001778  00000-0  12977-3 0  9994,2 50808  53.2170 238.2748 0001354  84.9135 275.2012 15.08833101 94718,6917.901,95.438,540.703,538.83,0.0
50808.0,STARLINK-3355,PAYLOAD,2023-09-22 01:37:37,15.08836231,0.0001418,53.2166,237.68,85.103,275.0124,0.00012779,1.746e-05,0.0,0 STARLINK-3355,1 50808U 22001F   23265.06779732  .00001746  00000-0  12779-3 0  9992,2 50808  53.2166 237.6800 0001418  85.1030 275.0124 15.08836231 95982,6917.892,95.438,540.738,538.776,0.0
50808.0,STARLINK-3355,PAYLOAD,2023-09-22 07:59:09,15.08843859,0.0001698,53.217,236.49,94.8801,265.2385,9.4012e-05,1.209e-05,0.0,0 STARLINK-3355,1 50808U 22001F   23265.33275418  .00001209  00000-0  94012-4 0  9999,2 50808  53.2170 236.4900 0001698  94.8801 265.2385 15.08843859 94778,6917.869,95.437,540.908,538.559,0.0
50808.0,STARLINK-3355,PAYLOAD,2023-09-23 03:03:47,15.08843245,0.0001477,53.217,232.9214,90.1084,270.0077,0.00013181,1.811e-05,0.0,0 STARLINK-3355,1 50808U 22001F   23266.12763366  .00001811  00000-0  13181-3 0  9997,2 50808  53.2170 232.9214 0001477  90.1084 270.0077 15.08843245 96148,6917.87,95.437,540.757,538.714,0.0
50808.0,STARLINK-3355,PAYLOAD,2023-09-23 07:49:56,15.08850953,0.0001428,53.2174,232.0283,93.3235,266.792,0.00013376,1.842e-05,0.0,0 STARLINK-3355,1 50808U 22001F   23266.32634839  .00001842  00000-0  13376-3 0  9991,2 50808  53.2174 232.0283 0001428  93.3235 266.7920 15.08850953 94925,6917.847,95.437,540.7,538.724,0.0
50808.0,STARLINK-3355,PAYLOAD,2023-09-24 02:54:34,15.0883973,0.0001305,53.2172,228.4621,101.0518,259.0621,6.5378e-05,7.53e-06,0.0,0 STARLINK-3355,1 50808U 22001F   23267.12123773  .00000753  00000-0  65378-4 0  9990,2 50808  53.2172 228.4621 0001305 101.0518 259.0621 15.08839730 96298,6917.881,95.438,540.649,538.843,0.0
50808.0,STARLINK-3355,PAYLOAD,2023-09-24 07:40:44,15.08844947,0.0001276,53.2171,227.5684,89.548,270.5658,6.7241e-05,7.83e-06,0.0,0 STARLINK-3355,1 50808U 22001F   23267.31995469  .00000783  00000-0  67241-4 0  9994,2 50808  53.2171 227.5684 0001276  89.5480 270.5658 15.08844947 95070,6917.865,95.437,540.613,538.848,0.0
50808.0,STARLINK-3355,PAYLOAD,2023-09-25 02:45:20,15.08860139,0.0001275,53.2162,224.0014,98.1124,262.0013,0.00016819,2.391e-05,0.0,0 STARLINK-3355,1 50808U 22001F   23268.11481866  .00002391  00000-0  16819-3 0  9995,2 50808  53.2162 224.0014 0001275  98.1124 262.0013 15.08860139 96443,6917.819,95.436,540.566,538.802,0.0
50808.0,STARLINK-3355,PAYLOAD,2023-09-25 07:31:28,15.0887639,0.0001167,53.2163,223.1088,97.9151,262.1974,0.000407,6.202e-05,0.0,0 STARLINK-3355,1 50808U 22001F   23268.31352871  .00006202  00000-0  40700-3 0  9991,2 50808  53.2163 223.1088 0001167  97.9151 262.1974 15.08876390 96478,6917.769,95.435,540.441,538.827,0.0
50808.0,STARLINK-3355,PAYLOAD,2023-09-25 13:53:01,15.08858936,0.0001417,53.2164,221.9189,89.8123,270.3031,0.00012874,1.763e-05,0.0,0 STARLINK-3355,1 50808U 22001F   23268.57849368  .00001763  00000-0  12874-3 0  9999,2 50808  53.2164 221.9189 0001417  89.8123 270.3031 15.08858936 96510,6917.823,95.436,540.668,538.707,0.0
50808.0,STARLINK-3355,PAYLOAD,2023-09-26 02:36:07,15.08839549,0.0001156,53.216,219.5413,82.512,277.6004,-0.00011726,-2.153e-05,0.0,0 STARLINK-3355,1 50808U 22001F   23269.10842397 -.00002153  00000-0 -11726-3 0  9995,2 50808  53.2160 219.5413 0001156  82.5120 277.6004 15.08839549 96593,6917.882,95.438,540.546,538.947,0.0
50808.0,STARLINK-3355,PAYLOAD,2023-09-26 04:11:30,15.0884392,0.0001192,53.2166,219.2443,82.0585,278.0543,-4.138e-05,-9.46e-06,0.0,0 STARLINK-3355,1 50808U 22001F   23269.17466190 -.00000946  00000-0 -41380-4 0  9993,2 50808  53.2166 219.2443 0001192  82.0585 278.0543 15.08843920 95353,6917.868,95.437,540.558,538.909,0.0
50808.0,STARLINK-3355,PAYLOAD,2023-09-27 00:51:32,15.0882181,0.0001293,53.2163,215.3775,69.8648,290.2483,-0.00038839,-6.461e-05,0.0,0 STARLINK-3355,1 50808U 22001F   23270.03579516 -.00006461  00000-0 -38839-3 0  9999,2 50808  53.2163 215.3775 0001293  69.8648 290.2483 15.08821810 96736,6917.936,95.439,540.695,538.906,0.0
50808.0,STARLINK-3355,PAYLOAD,2023-09-27 04:02:19,15.088236,0.0001503,53.216,214.7827,71.6089,288.5067,-0.00026077,-4.434e-05,0.0,0 STARLINK-3355,1 50808U 22001F   23270.16827712 -.00004434  00000-0 -26077-3 0  9996,2 50808  53.2160 214.7827 0001503  71.6089 288.5067 15.08823600 95509,6917.931,95.439,540.835,538.756,0.0
50808.0,STARLINK-3355,PAYLOAD,2023-09-28 02:17:45,15.08805583,0.0001483,53.2173,210.6176,84.959,275.1572,-0.00016067,-2.842e-05,0.0,0 STARLINK-3355,1 50808U 22001F   23271.09566417 -.00002842  00000-0 -16067-3 0  9990,2 50808  53.2173 210.6176 0001483  84.9590 275.1572 15.08805583 96892,6917.986,95.44,540.877,538.825,0.0
50808.0,STARLINK-3355,PAYLOAD,2023-09-28 19:46:59,15.08828028,0.0001104,53.2173,207.3478,112.1612,247.9497,0.0002555,3.779e-05,0.0,0 STARLINK-3355,1 50808U 22001F   23271.82430524  .00003779  00000-0  25550-3 0  9995,2 50808  53.2173 207.3478 0001104 112.1612 247.9497 15.08828028 95755,6917.917,95.438,540.546,539.018,0.0
50808.0,STARLINK-3355,PAYLOAD,2023-09-28 22:57:46,15.08833549,0.000158,53.2153,206.7567,91.4499,268.6674,0.00032334,4.861e-05,0.0,0 STARLINK-3355,1 50808U 22001F   23271.95678459  .00004861  00000-0  32334-3 0  9991,2 50808  53.2153 206.7567 0001580  91.4499 268.6674 15.08833549 97028,6917.9,95.438,540.858,538.672,0.0
50808.0,STARLINK-3355,PAYLOAD,2023-09-29 05:19:17,15.08854676,0.0001252,53.217,205.5632,106.4164,253.6965,0.00058657,9.063e-05,0.0,0 STARLINK-3355,1 50808U 22001F   23272.22173390  .00009063  00000-0  58657-3 0  9991,2 50808  53.2170 205.5632 0001252 106.4164 253.6965 15.08854676 97064,6917.836,95.437,540.567,538.834,0.0
50808.0,STARLINK-3355,PAYLOAD,2023-09-30 01:59:17,15.08863995,0.0001442,53.2175,201.6951,103.1877,256.9276,0.00049098,7.54e-05,0.0,0 STARLINK-3355,1 50808U 22001F   23273.08284454  .00007540  00000-0  49098-3 0  9997,2 50808  53.2175 201.6951 0001442 103.1877 256.9276 15.08863995 97195,6917.807,95.436,540.67,538.674,0.0
50808.0,STARLINK-3355,PAYLOAD,2023-10-01 01:50:05,15.08852215,0.0001322,53.2175,197.2383,103.6623,256.4516,-0.00010431,-1.948e-05,0.0,0 STARLINK-3355,1 50808U 22001F   23274.07644799 -.00001948  00000-0 -10431-3 0  9996,2 50808  53.2175 197.2383 0001322 103.6623 256.4516 15.08852215 97347,6917.843,95.437,540.623,538.794,0.0
50808.0,STARLINK-3355,PAYLOAD,2023-10-01 05:00:51,15.0885453,0.0001313,53.2178,196.6429,108.1146,251.9989,-8.3158e-05,-1.612e-05,0.0,0 STARLINK-3355,1 50808U 22001F   23274.20892487 -.00001612  00000-0 -83158-4 0  9995,2 50808  53.2178 196.6429 0001313 108.1146 251.9989 15.08854530 96114,6917.836,95.437,540.609,538.793,0.0
